start=new Date('2023-04-15T00:00:00.000Z').valueOf();
sats=[{"BSTAR":"-0.05118300000000","MEAN_MOTION_DOT":"-0.00905887","LAUNCH_DATE":"2023-02-02","OBJECT_ID":"2023-015AA","REF_FRAME":"TEME","TIME_SYSTEM":"UTC","PERIOD":"95.039","APOAPSIS":"521.288","ARG_OF_PERICENTER":"277.6996","OBJECT_NAME":"STARLINK-5687","SEMIMAJOR_AXIS":"6898.610","TLE_LINE1":"1 55473U 23015AA  23104.91667824 -.00905887  00000-0 -51183-1 0  9996","RA_OF_ASC_NODE":"324.5368","ECCENTRICITY":"0.00011790","SITE":"AFETR","INCLINATION":"43.0018","CLASSIFICATION_TYPE":"U","MEAN_ANOMALY":"173.1428","COUNTRY_CODE":"US","TLE_LINE2":"2 55473  43.0018 324.5368 0001179 277.6996 173.1428 15.15166589 11338","CENTER_NAME":"EARTH","GP_ID":"230063848","FILE":"3887413","DECAY_DATE":null,"MEAN_MOTION":"15.15166589","OBJECT_TYPE":"PAYLOAD","REV_AT_EPOCH":"1133","RCS_SIZE":"LARGE","MEAN_ELEMENT_THEORY":"SGP4","ELEMENT_SET_NO":"999","PERIAPSIS":"519.662","EPHEMERIS_TYPE":"0","EPOCH":"2023-04-14T22:00:00.999936","NORAD_CAT_ID":"55473","MEAN_MOTION_DDOT":"0.0000000000000"},{"ELEMENT_SET_NO":"999","PERIAPSIS":"557.994","RCS_SIZE":"LARGE","MEAN_ELEMENT_THEORY":"SGP4","MEAN_MOTION_DDOT":"0.0000000000000","EPHEMERIS_TYPE":"0","EPOCH":"2023-04-14T17:05:55.038048","NORAD_CAT_ID":"55474","GP_ID":"230064298","TLE_LINE2":"2 55474  43.0027 338.7942 0001556 270.1886  89.8778 15.02538472 11150","CENTER_NAME":"EARTH","OBJECT_TYPE":"PAYLOAD","MEAN_MOTION":"15.02538472","REV_AT_EPOCH":"1115","FILE":"3887442","DECAY_DATE":null,"TLE_LINE1":"1 55474U 23015AB  23104.71244257  .00000192  00000-0  29256-4 0  9998","RA_OF_ASC_NODE":"338.7942","ECCENTRICITY":"0.00015560","APOAPSIS":"560.153","PERIOD":"95.838","ARG_OF_PERICENTER":"270.1886","OBJECT_NAME":"STARLINK-5689","SEMIMAJOR_AXIS":"6937.209","MEAN_ANOMALY":"89.8778","CLASSIFICATION_TYPE":"U","COUNTRY_CODE":"US","SITE":"AFETR","INCLINATION":"43.0027","LAUNCH_DATE":"2023-02-02","MEAN_MOTION_DOT":"0.00000192","BSTAR":"0.00002925600000","TIME_SYSTEM":"UTC","OBJECT_ID":"2023-015AB","REF_FRAME":"TEME"},{"PERIAPSIS":"517.175","ELEMENT_SET_NO":"999","MEAN_ELEMENT_THEORY":"SGP4","RCS_SIZE":"LARGE","MEAN_MOTION_DDOT":"0.0000000000000","EPOCH":"2023-04-14T14:00:01.999872","NORAD_CAT_ID":"55475","EPHEMERIS_TYPE":"0","GP_ID":"230060571","CENTER_NAME":"EARTH","TLE_LINE2":"2 55475  43.0020 326.3516 0001146 265.6711 176.9812 15.15993592  1300","REV_AT_EPOCH":"130","MEAN_MOTION":"15.15993592","OBJECT_TYPE":"PAYLOAD","DECAY_DATE":null,"FILE":"3887333","ECCENTRICITY":"0.00011460","RA_OF_ASC_NODE":"326.3516","TLE_LINE1":"1 55475U 23015AC  23104.58335648 -.00889352  00000-0 -49005-1 0  9995","OBJECT_NAME":"STARLINK-5650","SEMIMAJOR_AXIS":"6896.101","ARG_OF_PERICENTER":"265.6711","PERIOD":"94.987","APOAPSIS":"518.756","COUNTRY_CODE":"US","MEAN_ANOMALY":"176.9812","CLASSIFICATION_TYPE":"U","INCLINATION":"43.0020","SITE":"AFETR","LAUNCH_DATE":"2023-02-02","MEAN_MOTION_DOT":"-0.00889352","BSTAR":"-0.04900500000000","TIME_SYSTEM":"UTC","REF_FRAME":"TEME","OBJECT_ID":"2023-015AC"},{"MEAN_ANOMALY":"81.4562","CLASSIFICATION_TYPE":"U","COUNTRY_CODE":"US","SITE":"AFETR","INCLINATION":"43.0008","RA_OF_ASC_NODE":"320.6505","TLE_LINE1":"1 55476U 23015AD  23103.94898012 -.00066374  00000-0 -41393-3 0  9999","ECCENTRICITY":"0.00032270","PERIOD":"91.369","APOAPSIS":"343.897","SEMIMAJOR_AXIS":"6719.863","OBJECT_NAME":"STARLINK-5596","ARG_OF_PERICENTER":"278.5942","TIME_SYSTEM":"UTC","REF_FRAME":"TEME","OBJECT_ID":"2023-015AD","LAUNCH_DATE":"2023-02-02","BSTAR":"-0.00041393000000","MEAN_MOTION_DOT":"-0.00066374","MEAN_MOTION_DDOT":"0.0000000000000","EPHEMERIS_TYPE":"0","NORAD_CAT_ID":"55476","EPOCH":"2023-04-13T22:46:31.882368","PERIAPSIS":"339.560","ELEMENT_SET_NO":"999","MEAN_ELEMENT_THEORY":"SGP4","RCS_SIZE":"LARGE","MEAN_MOTION":"15.76021357","OBJECT_TYPE":"PAYLOAD","REV_AT_EPOCH":"1129","DECAY_DATE":null,"FILE":"3887333","GP_ID":"230060821","TLE_LINE2":"2 55476  43.0008 320.6505 0003227 278.5942  81.4562 15.76021357 11292","CENTER_NAME":"EARTH"},{"CENTER_NAME":"EARTH","TLE_LINE2":"2 55477  43.0010 317.3828 0001545 282.1604 126.2953 15.51104067 11424","GP_ID":"230065350","FILE":"3887486","DECAY_DATE":null,"REV_AT_EPOCH":"1142","OBJECT_TYPE":"PAYLOAD","MEAN_MOTION":"15.51104067","RCS_SIZE":"LARGE","MEAN_ELEMENT_THEORY":"SGP4","ELEMENT_SET_NO":"999","PERIAPSIS":"412.454","NORAD_CAT_ID":"55477","EPOCH":"2023-04-15T00:00:00.999648","EPHEMERIS_TYPE":"0","MEAN_MOTION_DDOT":"0.0000000000000","MEAN_MOTION_DOT":"-0.00857765","BSTAR":"-0.01573000000000","LAUNCH_DATE":"2023-02-02","OBJECT_ID":"2023-015AE","REF_FRAME":"TEME","TIME_SYSTEM":"UTC","ARG_OF_PERICENTER":"282.1604","SEMIMAJOR_AXIS":"6791.638","OBJECT_NAME":"STARLINK-5685","APOAPSIS":"414.553","PERIOD":"92.837","ECCENTRICITY":"0.00015450","TLE_LINE1":"1 55477U 23015AE  23105.00001157 -.00857765  00000-0 -15730-1 0  9991","RA_OF_ASC_NODE":"317.3828","INCLINATION":"43.0010","SITE":"AFETR","COUNTRY_CODE":"US","CLASSIFICATION_TYPE":"U","MEAN_ANOMALY":"126.2953"},{"MEAN_MOTION_DDOT":"0.0000000000000","NORAD_CAT_ID":"55478","EPOCH":"2023-04-14T14:00:01.999872","EPHEMERIS_TYPE":"0","ELEMENT_SET_NO":"999","PERIAPSIS":"410.256","RCS_SIZE":"LARGE","MEAN_ELEMENT_THEORY":"SGP4","REV_AT_EPOCH":"130","MEAN_MOTION":"15.51869501","OBJECT_TYPE":"PAYLOAD","FILE":"3887333","DECAY_DATE":null,"GP_ID":"230061323","CENTER_NAME":"EARTH","TLE_LINE2":"2 55478  43.0003 319.8159 0001494 254.2268 345.8613 15.51869501  1309","COUNTRY_CODE":"US","MEAN_ANOMALY":"345.8613","CLASSIFICATION_TYPE":"U","INCLINATION":"43.0003","SITE":"AFETR","ECCENTRICITY":"0.00014940","TLE_LINE1":"1 55478U 23015AF  23104.58335648 -.00888796  00000-0 -15909-1 0  9995","RA_OF_ASC_NODE":"319.8159","ARG_OF_PERICENTER":"254.2268","OBJECT_NAME":"STARLINK-5691","SEMIMAJOR_AXIS":"6789.405","APOAPSIS":"412.284","PERIOD":"92.791","TIME_SYSTEM":"UTC","OBJECT_ID":"2023-015AF","REF_FRAME":"TEME","LAUNCH_DATE":"2023-02-02","MEAN_MOTION_DOT":"-0.00888796","BSTAR":"-0.01590900000000"},{"PERIAPSIS":"412.074","ELEMENT_SET_NO":"999","MEAN_ELEMENT_THEORY":"SGP4","RCS_SIZE":"LARGE","MEAN_MOTION_DDOT":"0.0000000000000","EPOCH":"2023-04-14T22:00:00.999936","NORAD_CAT_ID":"55479","EPHEMERIS_TYPE":"0","GP_ID":"230064470","CENTER_NAME":"EARTH","TLE_LINE2":"2 55479  43.0003 317.8735 0001443 268.2359  33.0949 15.51258057 11406","REV_AT_EPOCH":"1140","OBJECT_TYPE":"PAYLOAD","MEAN_MOTION":"15.51258057","DECAY_DATE":null,"FILE":"3887446","ECCENTRICITY":"0.00014430","RA_OF_ASC_NODE":"317.8735","TLE_LINE1":"1 55479U 23015AG  23104.91667824 -.00879391  00000-0 -16076-1 0  9994","SEMIMAJOR_AXIS":"6791.189","OBJECT_NAME":"STARLINK-5688","ARG_OF_PERICENTER":"268.2359","APOAPSIS":"414.034","PERIOD":"92.828","COUNTRY_CODE":"US","MEAN_ANOMALY":"33.0949","CLASSIFICATION_TYPE":"U","INCLINATION":"43.0003","SITE":"AFETR","LAUNCH_DATE":"2023-02-02","BSTAR":"-0.01607600000000","MEAN_MOTION_DOT":"-0.00879391","TIME_SYSTEM":"UTC","REF_FRAME":"TEME","OBJECT_ID":"2023-015AG"},{"INCLINATION":"43.0008","SITE":"AFETR","COUNTRY_CODE":"US","CLASSIFICATION_TYPE":"U","MEAN_ANOMALY":"92.2434","ARG_OF_PERICENTER":"267.8255","SEMIMAJOR_AXIS":"6939.708","OBJECT_NAME":"STARLINK-5690","PERIOD":"95.890","APOAPSIS":"562.498","ECCENTRICITY":"0.00013330","TLE_LINE1":"1 55480U 23015AH  23104.51622825  .00001776  00000-0  14955-3 0  9992","RA_OF_ASC_NODE":"336.4444","OBJECT_ID":"2023-015AH","REF_FRAME":"TEME","TIME_SYSTEM":"UTC","BSTAR":"0.00014955000000","MEAN_MOTION_DOT":"0.00001776","LAUNCH_DATE":"2023-02-02","NORAD_CAT_ID":"55480","EPOCH":"2023-04-14T12:23:22.120800","EPHEMERIS_TYPE":"0","MEAN_MOTION_DDOT":"0.0000000000000","RCS_SIZE":"LARGE","MEAN_ELEMENT_THEORY":"SGP4","ELEMENT_SET_NO":"999","PERIAPSIS":"560.648","FILE":"3887333","DECAY_DATE":null,"REV_AT_EPOCH":"1116","OBJECT_TYPE":"PAYLOAD","MEAN_MOTION":"15.01726901","CENTER_NAME":"EARTH","TLE_LINE2":"2 55480  43.0008 336.4444 0001333 267.8255  92.2434 15.01726901 11167","GP_ID":"230060321"},{"GP_ID":"230064481","CENTER_NAME":"EARTH","TLE_LINE2":"2 55481  43.0016 338.7785 0000852 284.0501  76.0247 15.02542090 11157","REV_AT_EPOCH":"1115","MEAN_MOTION":"15.02542090","OBJECT_TYPE":"PAYLOAD","FILE":"3887444","DECAY_DATE":null,"ELEMENT_SET_NO":"999","PERIAPSIS":"558.472","RCS_SIZE":"LARGE","MEAN_ELEMENT_THEORY":"SGP4","MEAN_MOTION_DDOT":"0.0000000000000","NORAD_CAT_ID":"55481","EPOCH":"2023-04-14T17:02:43.242144","EPHEMERIS_TYPE":"0","LAUNCH_DATE":"2023-02-02","BSTAR":"0.00016660000000","MEAN_MOTION_DOT":"0.00002048","TIME_SYSTEM":"UTC","OBJECT_ID":"2023-015AJ","REF_FRAME":"TEME","ECCENTRICITY":"0.00008520","TLE_LINE1":"1 55481U 23015AJ  23104.71022271  .00002048  00000-0  16660-3 0  9992","RA_OF_ASC_NODE":"338.7785","ARG_OF_PERICENTER":"284.0501","SEMIMAJOR_AXIS":"6937.198","OBJECT_NAME":"STARLINK-5694","PERIOD":"95.838","APOAPSIS":"559.654","COUNTRY_CODE":"US","MEAN_ANOMALY":"76.0247","CLASSIFICATION_TYPE":"U","INCLINATION":"43.0016","SITE":"AFETR"},{"LAUNCH_DATE":"2023-02-02","BSTAR":"-0.00695060000000","MEAN_MOTION_DOT":"-0.00092967","TIME_SYSTEM":"UTC","REF_FRAME":"TEME","OBJECT_ID":"2023-015AK","RA_OF_ASC_NODE":"337.3696","TLE_LINE1":"1 55482U 23015AK  23104.91667824 -.00092967  00000-0 -69506-2 0  9991","ECCENTRICITY":"0.00014650","APOAPSIS":"559.968","PERIOD":"95.835","OBJECT_NAME":"STARLINK-5693","SEMIMAJOR_AXIS":"6937.087","ARG_OF_PERICENTER":"264.9668","CLASSIFICATION_TYPE":"U","MEAN_ANOMALY":"253.3448","COUNTRY_CODE":"US","SITE":"AFETR","INCLINATION":"43.0013","GP_ID":"230064597","TLE_LINE2":"2 55482  43.0013 337.3696 0001465 264.9668 253.3448 15.02578234 11009","CENTER_NAME":"EARTH","OBJECT_TYPE":"PAYLOAD","MEAN_MOTION":"15.02578234","REV_AT_EPOCH":"1100","DECAY_DATE":null,"FILE":"3887445","PERIAPSIS":"557.935","ELEMENT_SET_NO":"999","MEAN_ELEMENT_THEORY":"SGP4","RCS_SIZE":"LARGE","MEAN_MOTION_DDOT":"0.0000000000000","EPHEMERIS_TYPE":"0","NORAD_CAT_ID":"55482","EPOCH":"2023-04-14T22:00:00.999936"}];
